#aV2021 12 10  0  0  0.00000000     288 DD+AD WGS84 FIT  NGA
## 2187 432000.00000000   300.00000000 59558 0.0000000000000
+   32     1  2  3  4  5  6  7  8  9 10 11 12 13 14 15 16 17
+         18 19 20 21 22 23 24 25 26 27 28 29 30 31 32  0  0
+          0  0  0  0  0  0  0  0  0  0  0  0  0  0  0  0  0
+          0  0  0  0  0  0  0  0  0  0  0  0  0  0  0  0  0
+          0  0  0  0  0  0  0  0  0  0  0  0  0  0  0  0  0
++         2  2  2  2  2  2  2  2  2  2  2  2  2  2  2  2  2
++         2  2  2  2  2  2  2  2  2  2  2  2  2  2  2  0  0
++         0  0  0  0  0  0  0  0  0  0  0  0  0  0  0  0  0
++         0  0  0  0  0  0  0  0  0  0  0  0  0  0  0  0  0
++         0  0  0  0  0  0  0  0  0  0  0  0  0  0  0  0  0
%c cc cc ccc ccc cccc cccc cccc cccc ccccc ccccc ccccc ccccc
%c cc cc ccc ccc cccc cccc cccc cccc ccccc ccccc ccccc ccccc
%f  0.0000000  0.000000000  0.00000000000  0.000000000000000
%f  0.0000000  0.000000000  0.00000000000  0.000000000000000
%i    0    0    0    0      0      0      0      0         0
%i    0    0    0    0      0      0      0      0         0
/*      NGA, ST. LOUIS,MO.                                  
/*   EPHEMERIS COMPUTED FROM 2 DAYS OF DATA                 
/*   EPOCHA v7 SMOOTHER                                     
/*   G2139 IERS2010 SATIGS SATAPC                           
*  2021 12 10 13  5  0.00000000
P  1 -13885.057803  22387.648921    961.511805    487.841247                    
V  1  -1188.557788  -2513.082028  32511.732504     -0.102184                    
P  2  17375.847343  -7480.628996 -18023.059611   -645.186998                    
V  2  -8936.469552  22548.985643 -17254.354231     -0.013061                    
P  3 -14062.148020  12773.156856 -18624.439514    -37.259309                    
V  3 -23445.331673  -1233.062226  17048.346545     -0.119173                    
P  4  -5074.368219  18142.054503 -18692.293926   -199.491342                    
V  4 -12583.230226 -20214.674329 -16277.542157      0.012316                    
P  5  25157.163821  -5677.016195   6507.388326    -63.927626                    
V  5   8553.829620   2281.435744 -30165.462654     -0.013075                    
P  6  11200.889212   9703.980785 -21968.375255    139.103241                    
V  6 -14189.085313  24130.662274   3473.190602      0.099139                    
P  7  -2288.688799  22843.180572  13291.472254    289.126645                    
V  7 -10625.258817  12898.295886 -25180.281789      0.046193                    
P  8 -12968.852096   7755.982766  21828.962274    -47.521707                    
V  8 -14563.406944 -23605.106934     59.632727     -0.014994                    
P  9   5463.849080  23676.880508 -10761.648458   -360.683102                    
V  9  -9327.142629 -10220.556966 -27440.980295      0.006460                    
P 10 -16445.183702 -11809.484099  17473.451190   -265.430804                    
V 10  21784.032160  -1455.347461  19375.362133     -0.089129                    
P 11  18152.634737  -3510.668926 -19069.149118     14.059153                    
V 11 -12050.219348  21035.395887 -15362.414510     -0.030586                    
P 12  16573.112301 -11050.456031 -17756.176384   -138.706116                    
V 12  21919.039459   2944.907042  19031.075595     -0.056029                    
P 13  16045.059517    893.383575  21021.180935    227.343786                    
V 13   9796.785373  25163.453679  -8334.244582      0.057872                    
P 14  15618.844521  12804.654083  17276.740079    -52.869252                    
V 14 -21987.884125    984.516192  19086.802998     -0.062829                    
P 15  12199.374003  -9885.247996  21015.562690   -100.209638                    
V 15  17004.018491  21946.034928    768.952806      0.028173                    
P 16 -26502.074858    330.123001   3787.261768   -438.103035                    
V 16  -4861.009903  -2509.067746 -31210.624238     -0.060683                    
P 17  13027.092508  23007.059161  -1906.269334    545.500056                    
V 17   -674.018749   3649.998244  32083.590753      0.052723                    
P 18   2503.061013 -22523.009523  13764.932191    281.899028                    
V 18  10742.137002 -13973.486421 -24906.382043     -0.064907                    
P 19  16266.784745  18152.177959 -11020.376428     90.357380                    
V 19   3938.051203  13044.527151  27797.679420      0.049906                    
P 20  26031.939237   -831.934892  -4448.006945    517.710258                    
V 20  -5059.362380   4434.050456 -30795.244031     -0.001890                    
P 21 -16838.577930  17206.882927  11205.793151    153.361649                    
V 21   3258.621141 -13311.920852  27570.566766      0.009872                    
P 22 -20869.063388  11029.374426 -11795.258681   -444.745872                    
V 22 -15624.093576  -1437.421766  26132.750247      0.089835                    
P 23  -4091.316793 -14815.878524  21650.894299     23.426626                    
V 23  27481.637613  -1192.363750   4286.493351     -0.041921                    
P 24  14687.955176 -21026.206298   5724.515323    273.858181                    
V 24    204.451900   8671.660155  30263.109215      0.022548                    
P 25   4198.807854 -15203.582964 -21609.397401    253.609446                    
V 25  26849.810181    326.153375   5326.531022      0.057641                    
P 26 -24320.545725  -5653.153903  -9552.954784    163.630516                    
V 26  11798.649869  -3523.133082 -27855.252326      0.036539                    
P 27 -17564.607133  -3790.877644  19502.286561   -229.335942                    
V 27 -11805.359036 -22063.129819 -14410.041845     -0.045185                    
P 28  21219.795361  10420.930266  12415.812666    445.973180                    
V 28 -15117.635655    753.240471  26560.013709     -0.076439                    
P 29   -549.255190 -22523.631402 -14061.109799   -452.082982                    
V 29   9295.916762  15232.982750 -24890.207824     -0.051396                    
P 30   6122.161397  17281.851576  19202.467136   -498.205091                    
V 30 -14001.766320  20061.675854 -13877.065409     -0.029722                    
P 31 -13489.639119  -7426.168623 -21760.730336   -154.351514                    
V 31  14284.988480 -23349.878972   -425.685123     -0.018770                    
P 32 -16533.556801 -20113.882947  -5611.788919    -33.186922                    
V 32  -1379.194650  -7601.920625  30486.680293     -0.053208                    
EOF
